CALSPHERE 1             
1 00900U 64063C   25065.77520861  .00000986  00000+0  10075-2 0  9999
2 00900  90.2084  61.0831 0023148 267.6010 271.6937 13.75863938  7132
CALSPHERE 2             
1 00902U 64063E   25066.25650170  .00000079  00000+0  10530-3 0  9992
2 00902  90.2221  64.8791 0019812 138.3595 238.7939 13.52850376793582
LCS 1                   
1 01361U 65034C   25065.64406273  .00000027  00000+0  23853-2 0  9990
2 01361  32.1372 207.1381 0011415 265.5294  94.3899  9.89308198163588
TEMPSAT 1               
1 01512U 65065E   25066.44960765  .00000070  00000+0  12081-3 0  9992
2 01512  89.9709 213.1550 0071358 118.7406 304.3596 13.33556769897845
CALSPHERE 4A            
1 01520U 65065H   25065.60236193  .00000129  00000+0  23170-3 0  9995
2 01520  89.9286 126.4752 0068313 344.7196 137.0633 13.36171738900264
OPS 5712 (P/L 160)      
1 02826U 67053A   25066.39048455  .00009129  00000+0  15982-2 0  9993
2 02826  69.9199  94.2279 0005889 309.9428  50.1197 14.68070997997976
OPS 5712 (P/L 153)      
1 02874U 67053H   25066.14315771  .00000090  00000+0  10343-3 0  9992
2 02874  69.9744  36.2923 0004429  79.7935 280.3671 13.96719596942048
SURCAL 150B             
1 02909U 67053J   25066.09641802  .00058115  00000+0  37413-2 0  9999
2 02909  69.9299  11.2535 0005134 282.2849  77.7740 15.08033089 10764
RIGIDSPHERE 2 (LCS 4)   
1 05398U 71067E   25066.44128986  .00001078  00000+0  35108-3 0  9992
2 05398  87.6164 108.4307 0059664 342.9551  16.9642 14.36935063807060
COSMOS 2493 (SKRL-756 1)
1 39490U 13078A   25066.43644365  .00005316  00000+0  44456-3 0  9998
2 39490  82.4176 356.4970 0015207  25.7963 334.4015 14.98227712608306
COSMOS 2494 (SKRL-756 2)
1 39491U 13078B   25066.47034845  .00006011  00000+0  47405-3 0  9999
2 39491  82.4173 347.6414 0017884 352.1513   7.9428 15.00465389608791
